[{"OBJECT_NAME":"ASTROCAST-0404","OBJECT_ID":"2023-001DH","EPOCH":"2026-03-09T19:24:02.920896","MEAN_MOTION":15.26309833,"ECCENTRICITY":0.00068478,"INCLINATION":97.5646,"RA_OF_ASC_NODE":161.5422,"ARG_OF_PERICENTER":1.1317,"MEAN_ANOMALY":358.9936,"EPHEMERIS_TYPE":0,"CLASSIFICATION_TYPE":"U","NORAD_CAT_ID":55112,"ELEMENT_SET_NO":999,"REV_AT_EPOCH":12936,"BSTAR":0.00034435555,"MEAN_MOTION_DOT":8.87e-5,"MEAN_MOTION_DDOT":0},{"OBJECT_NAME":"STARLINK-30168","OBJECT_ID":"2023-113U","EPOCH":"2026-03-09T22:00:01.999584","MEAN_MOTION":15.26731228,"ECCENTRICITY":0.00014958,"INCLINATION":43.0016,"RA_OF_ASC_NODE":14.4447,"ARG_OF_PERICENTER":256.2569,"MEAN_ANOMALY":102.8203,"EPHEMERIS_TYPE":0,"CLASSIFICATION_TYPE":"U","NORAD_CAT_ID":57513,"ELEMENT_SET_NO":999,"REV_AT_EPOCH":563,"BSTAR":0.0002947252,"MEAN_MOTION_DOT":7.652e-5,"MEAN_MOTION_DDOT":0}]
